[{"OBJECT_NAME":"STARLINK-5697","OBJECT_ID":"2023-020W","EPOCH":"2026-03-09T22:00:01.999584","MEAN_MOTION":15.10960838,"ECCENTRICITY":8.729e-5,"INCLINATION":43.0005,"RA_OF_ASC_NODE":3.1004,"ARG_OF_PERICENTER":307.7189,"MEAN_ANOMALY":175.5763,"EPHEMERIS_TYPE":0,"CLASSIFICATION_TYPE":"U","NORAD_CAT_ID":55589,"ELEMENT_SET_NO":999,"REV_AT_EPOCH":573,"BSTAR":0.072755061,"MEAN_MOTION_DOT":0.01343581,"MEAN_MOTION_DDOT":0},{"OBJECT_NAME":"DMSP 5D-2 F14 DEB","OBJECT_ID":"1997-012R","EPOCH":"2026-03-09T22:53:23.097120","MEAN_MOTION":14.81560846,"ECCENTRICITY":0.01753616,"INCLINATION":98.3549,"RA_OF_ASC_NODE":137.9516,"ARG_OF_PERICENTER":248.8102,"MEAN_ANOMALY":109.4296,"EPHEMERIS_TYPE":0,"CLASSIFICATION_TYPE":"U","NORAD_CAT_ID":62945,"ELEMENT_SET_NO":999,"REV_AT_EPOCH":49672,"BSTAR":0.0018560597,"MEAN_MOTION_DOT":0.00019008,"MEAN_MOTION_DDOT":0}]
